{"type":"FeatureCollection","features":[{"type":"Feature","properties":{},"geometry":{"coordinates":[[[-35.822599012843426,-9.504574704059067],[-35.82050482365028,-9.557950917830482],[-35.78430036263978,-9.607440429179007],[-35.76450701532204,-9.644681952016398],[-35.7802571273734,-9.684067934985293],[-35.78687525101978,-9.700714603605519],[-35.77330944484939,-9.714816818805318],[-35.724897069031954,-9.697447203924725],[-35.69226423216173,-9.683712041403382],[-35.675764188785024,-9.640698810881318],[-35.6662392796066,-9.608887500474722],[-35.653853946774404,-9.588395758918011],[-35.67220355945838,-9.572869756585249],[-35.69382982772919,-9.588053241553169],[-35.712432693437506,-9.574794625268055],[-35.71902223282328,-9.561803189968899],[-35.70327736058496,-9.54696584663202],[-35.70452387283072,-9.532240989371346],[-35.71258044953723,-9.52574290234179],[-35.736005584853075,-9.518198079351961],[-35.75209388010259,-9.519322460386633],[-35.76889975965332,-9.502410701524212],[-35.80473523472733,-9.49376766855623],[-35.822599012843426,-9.504574704059067]]],"type":"Polygon"}}]}